[{"OBJECT_NAME":"STARLINK-31427","OBJECT_ID":"2024-049L","EPOCH":"2025-12-10T04:27:00.162720","MEAN_MOTION":15.27605332,"ECCENTRICITY":0.0001456,"INCLINATION":43.0031,"RA_OF_ASC_NODE":289.3201,"ARG_OF_PERICENTER":278.6808,"MEAN_ANOMALY":81.3879,"EPHEMERIS_TYPE":0,"CLASSIFICATION_TYPE":"U","NORAD_CAT_ID":59241,"ELEMENT_SET_NO":999,"REV_AT_EPOCH":9871,"BSTAR":0.00012974962,"MEAN_MOTION_DOT":3.313e-5,"MEAN_MOTION_DDOT":0},{"OBJECT_NAME":"STARLINK-31423","OBJECT_ID":"2024-049M","EPOCH":"2025-12-10T05:51:52.987392","MEAN_MOTION":15.27623257,"ECCENTRICITY":0.00013804,"INCLINATION":43.0033,"RA_OF_ASC_NODE":288.9277,"ARG_OF_PERICENTER":272.9911,"MEAN_ANOMALY":87.0783,"EPHEMERIS_TYPE":0,"CLASSIFICATION_TYPE":"U","NORAD_CAT_ID":59242,"ELEMENT_SET_NO":999,"REV_AT_EPOCH":9872,"BSTAR":0.00023749045,"MEAN_MOTION_DOT":6.287e-5,"MEAN_MOTION_DDOT":0},{"OBJECT_NAME":"STARLINK-31433","OBJECT_ID":"2024-049N","EPOCH":"2025-12-10T05:14:54.586176","MEAN_MOTION":15.27597624,"ECCENTRICITY":6.524e-5,"INCLINATION":42.9987,"RA_OF_ASC_NODE":288.7356,"ARG_OF_PERICENTER":276.8693,"MEAN_ANOMALY":83.2085,"EPHEMERIS_TYPE":0,"CLASSIFICATION_TYPE":"U","NORAD_CAT_ID":59243,"ELEMENT_SET_NO":999,"REV_AT_EPOCH":9872,"BSTAR":0.00015326329,"MEAN_MOTION_DOT":3.96e-5,"MEAN_MOTION_DDOT":0},{"OBJECT_NAME":"STARLINK-31285","OBJECT_ID":"2024-049P","EPOCH":"2025-12-10T06:26:54.021984","MEAN_MOTION":15.2756579,"ECCENTRICITY":5.92e-6,"INCLINATION":42.9977,"RA_OF_ASC_NODE":288.2539,"ARG_OF_PERICENTER":73.2858,"MEAN_ANOMALY":286.8,"EPHEMERIS_TYPE":0,"CLASSIFICATION_TYPE":"U","NORAD_CAT_ID":59244,"ELEMENT_SET_NO":999,"REV_AT_EPOCH":9872,"BSTAR":-4.7149964e-5,"MEAN_MOTION_DOT":-1.558e-5,"MEAN_MOTION_DDOT":0},{"OBJECT_NAME":"STARLINK-31268","OBJECT_ID":"2024-049Q","EPOCH":"2025-12-10T08:00:03.000384","MEAN_MOTION":15.31939515,"ECCENTRICITY":0.00053986,"INCLINATION":42.9991,"RA_OF_ASC_NODE":283.9486,"ARG_OF_PERICENTER":188.5818,"MEAN_ANOMALY":333.2523,"EPHEMERIS_TYPE":0,"CLASSIFICATION_TYPE":"U","NORAD_CAT_ID":59245,"ELEMENT_SET_NO":999,"REV_AT_EPOCH":587,"BSTAR":0.0067269435,"MEAN_MOTION_DOT":0.00217896,"MEAN_MOTION_DDOT":0},{"OBJECT_NAME":"STARLINK-31284","OBJECT_ID":"2024-049R","EPOCH":"2025-12-10T06:43:31.421856","MEAN_MOTION":15.27585167,"ECCENTRICITY":5.596e-5,"INCLINATION":42.9996,"RA_OF_ASC_NODE":288.335,"ARG_OF_PERICENTER":275.68,"MEAN_ANOMALY":84.3988,"EPHEMERIS_TYPE":0,"CLASSIFICATION_TYPE":"U","NORAD_CAT_ID":59246,"ELEMENT_SET_NO":999,"REV_AT_EPOCH":9872,"BSTAR":0.0001270328,"MEAN_MOTION_DOT":3.236e-5,"MEAN_MOTION_DDOT":0},{"OBJECT_NAME":"STARLINK-31424","OBJECT_ID":"2024-049S","EPOCH":"2025-12-10T05:23:01.054464","MEAN_MOTION":15.27590969,"ECCENTRICITY":4.122e-5,"INCLINATION":43.0004,"RA_OF_ASC_NODE":285.3127,"ARG_OF_PERICENTER":185.0129,"MEAN_ANOMALY":175.0719,"EPHEMERIS_TYPE":0,"CLASSIFICATION_TYPE":"U","NORAD_CAT_ID":59247,"ELEMENT_SET_NO":999,"REV_AT_EPOCH":9875,"BSTAR":0.00017731656,"MEAN_MOTION_DOT":4.622e-5,"MEAN_MOTION_DDOT":0},{"OBJECT_NAME":"STARLINK-31405","OBJECT_ID":"2024-049T","EPOCH":"2025-12-09T21:50:03.367680","MEAN_MOTION":15.27570624,"ECCENTRICITY":0.00012413,"INCLINATION":43.0028,"RA_OF_ASC_NODE":290.718,"ARG_OF_PERICENTER":269.6464,"MEAN_ANOMALY":90.4245,"EPHEMERIS_TYPE":0,"CLASSIFICATION_TYPE":"U","NORAD_CAT_ID":59248,"ELEMENT_SET_NO":999,"REV_AT_EPOCH":9866,"BSTAR":0.00011483295,"MEAN_MOTION_DOT":2.898e-5,"MEAN_MOTION_DDOT":0},{"OBJECT_NAME":"STARLINK-31426","OBJECT_ID":"2024-049U","EPOCH":"2025-12-10T05:46:22.323360","MEAN_MOTION":15.27592033,"ECCENTRICITY":0.0001227,"INCLINATION":43.0033,"RA_OF_ASC_NODE":288.8929,"ARG_OF_PERICENTER":287.3135,"MEAN_ANOMALY":72.7582,"EPHEMERIS_TYPE":0,"CLASSIFICATION_TYPE":"U","NORAD_CAT_ID":59249,"ELEMENT_SET_NO":999,"REV_AT_EPOCH":9871,"BSTAR":9.1252134e-5,"MEAN_MOTION_DOT":2.251e-5,"MEAN_MOTION_DDOT":0},{"OBJECT_NAME":"STARLINK-31407","OBJECT_ID":"2024-049V","EPOCH":"2025-12-10T03:51:53.406720","MEAN_MOTION":15.27586287,"ECCENTRICITY":8.741e-5,"INCLINATION":43.0016,"RA_OF_ASC_NODE":277.9186,"ARG_OF_PERICENTER":268.3901,"MEAN_ANOMALY":91.685,"EPHEMERIS_TYPE":0,"CLASSIFICATION_TYPE":"U","NORAD_CAT_ID":59250,"ELEMENT_SET_NO":999,"REV_AT_EPOCH":9883,"BSTAR":0.00029940842,"MEAN_MOTION_DOT":7.988e-5,"MEAN_MOTION_DDOT":0},{"OBJECT_NAME":"STARLINK-31393","OBJECT_ID":"2024-049X","EPOCH":"2025-12-10T04:07:23.294496","MEAN_MOTION":15.27603775,"ECCENTRICITY":7.742e-5,"INCLINATION":42.9993,"RA_OF_ASC_NODE":274.5204,"ARG_OF_PERICENTER":253.311,"MEAN_ANOMALY":106.7657,"EPHEMERIS_TYPE":0,"CLASSIFICATION_TYPE":"U","NORAD_CAT_ID":59252,"ELEMENT_SET_NO":999,"REV_AT_EPOCH":9888,"BSTAR":-3.1983588e-5,"MEAN_MOTION_DOT":-1.142e-5,"MEAN_MOTION_DDOT":0},{"OBJECT_NAME":"STARLINK-31425","OBJECT_ID":"2024-049Y","EPOCH":"2025-12-10T05:03:49.239648","MEAN_MOTION":15.27583889,"ECCENTRICITY":8.748e-5,"INCLINATION":43.0022,"RA_OF_ASC_NODE":288.6749,"ARG_OF_PERICENTER":278.4978,"MEAN_ANOMALY":81.5775,"EPHEMERIS_TYPE":0,"CLASSIFICATION_TYPE":"U","NORAD_CAT_ID":59253,"ELEMENT_SET_NO":999,"REV_AT_EPOCH":9871,"BSTAR":0.00012786428,"MEAN_MOTION_DOT":3.259e-5,"MEAN_MOTION_DDOT":0},{"OBJECT_NAME":"STARLINK-31659","OBJECT_ID":"2024-050A","EPOCH":"2025-12-09T03:02:41.670816","MEAN_MOTION":15.30193431,"ECCENTRICITY":0.00012909,"INCLINATION":53.1587,"RA_OF_ASC_NODE":239.4771,"ARG_OF_PERICENTER":69.7757,"MEAN_ANOMALY":290.3383,"EPHEMERIS_TYPE":0,"CLASSIFICATION_TYPE":"U","NORAD_CAT_ID":59254,"ELEMENT_SET_NO":999,"REV_AT_EPOCH":9786,"BSTAR":0.00014327456,"MEAN_MOTION_DOT":3.886e-5,"MEAN_MOTION_DDOT":0},{"OBJECT_NAME":"STARLINK-31629","OBJECT_ID":"2024-050B","EPOCH":"2025-12-09T03:14:05.354880","MEAN_MOTION":15.30197223,"ECCENTRICITY":7.767e-5,"INCLINATION":53.1586,"RA_OF_ASC_NODE":241.6532,"ARG_OF_PERICENTER":86.3812,"MEAN_ANOMALY":273.7277,"EPHEMERIS_TYPE":0,"CLASSIFICATION_TYPE":"U","NORAD_CAT_ID":59255,"ELEMENT_SET_NO":999,"REV_AT_EPOCH":9668,"BSTAR":0.00015105036,"MEAN_MOTION_DOT":4.117e-5,"MEAN_MOTION_DDOT":0},{"OBJECT_NAME":"STARLINK-31652","OBJECT_ID":"2024-050C","EPOCH":"2025-12-09T10:46:06.762432","MEAN_MOTION":15.30203561,"ECCENTRICITY":0.00012395,"INCLINATION":53.1604,"RA_OF_ASC_NODE":240.0606,"ARG_OF_PERICENTER":74.8335,"MEAN_ANOMALY":285.2803,"EPHEMERIS_TYPE":0,"CLASSIFICATION_TYPE":"U","NORAD_CAT_ID":59256,"ELEMENT_SET_NO":999,"REV_AT_EPOCH":9673,"BSTAR":-1.2545306e-5,"MEAN_MOTION_DOT":-7.31e-6,"MEAN_MOTION_DDOT":0},{"OBJECT_NAME":"STARLINK-31655","OBJECT_ID":"2024-050D","EPOCH":"2025-12-10T08:00:03.000384","MEAN_MOTION":15.5120269,"ECCENTRICITY":0.0011988,"INCLINATION":53.1499,"RA_OF_ASC_NODE":194.5123,"ARG_OF_PERICENTER":197.7049,"MEAN_ANOMALY":229.9509,"EPHEMERIS_TYPE":0,"CLASSIFICATION_TYPE":"U","NORAD_CAT_ID":59257,"ELEMENT_SET_NO":999,"REV_AT_EPOCH":594,"BSTAR":0.0056575144,"MEAN_MOTION_DOT":0.00352255,"MEAN_MOTION_DDOT":0},{"OBJECT_NAME":"STARLINK-31637","OBJECT_ID":"2024-050E","EPOCH":"2025-12-10T02:17:31.435008","MEAN_MOTION":15.30202276,"ECCENTRICITY":0.00013093,"INCLINATION":53.16,"RA_OF_ASC_NODE":236.9882,"ARG_OF_PERICENTER":82.6363,"MEAN_ANOMALY":277.4786,"EPHEMERIS_TYPE":0,"CLASSIFICATION_TYPE":"U","NORAD_CAT_ID":59258,"ELEMENT_SET_NO":999,"REV_AT_EPOCH":9683,"BSTAR":5.6621465e-5,"MEAN_MOTION_DOT":1.318e-5,"MEAN_MOTION_DDOT":0},{"OBJECT_NAME":"STARLINK-31506","OBJECT_ID":"2024-050F","EPOCH":"2025-12-09T17:16:00.060960","MEAN_MOTION":15.30195861,"ECCENTRICITY":0.00013706,"INCLINATION":53.1608,"RA_OF_ASC_NODE":238.9036,"ARG_OF_PERICENTER":72.3626,"MEAN_ANOMALY":287.7524,"EPHEMERIS_TYPE":0,"CLASSIFICATION_TYPE":"U","NORAD_CAT_ID":59259,"ELEMENT_SET_NO":999,"REV_AT_EPOCH":9677,"BSTAR":9.9565331e-5,"MEAN_MOTION_DOT":2.59e-5,"MEAN_MOTION_DDOT":0},{"OBJECT_NAME":"STARLINK-31639","OBJECT_ID":"2024-050H","EPOCH":"2025-12-10T00:48:02.508768","MEAN_MOTION":15.3018681,"ECCENTRICITY":0.00014424,"INCLINATION":53.1611,"RA_OF_ASC_NODE":237.3098,"ARG_OF_PERICENTER":95.7874,"MEAN_ANOMALY":264.3292,"EPHEMERIS_TYPE":0,"CLASSIFICATION_TYPE":"U","NORAD_CAT_ID":59261,"ELEMENT_SET_NO":999,"REV_AT_EPOCH":9682,"BSTAR":9.2856541e-5,"MEAN_MOTION_DOT":2.391e-5,"MEAN_MOTION_DDOT":0},{"OBJECT_NAME":"STARLINK-31598","OBJECT_ID":"2024-050K","EPOCH":"2025-12-10T01:57:56.954016","MEAN_MOTION":15.30180786,"ECCENTRICITY":0.0001256,"INCLINATION":53.1604,"RA_OF_ASC_NODE":237.5906,"ARG_OF_PERICENTER":97.1433,"MEAN_ANOMALY":262.971,"EPHEMERIS_TYPE":0,"CLASSIFICATION_TYPE":"U","NORAD_CAT_ID":59263,"ELEMENT_SET_NO":999,"REV_AT_EPOCH":9682,"BSTAR":7.353603e-6,"MEAN_MOTION_DOT":-1.41e-6,"MEAN_MOTION_DDOT":0},{"OBJECT_NAME":"STARLINK-31645","OBJECT_ID":"2024-050L","EPOCH":"2025-12-10T06:03:32.423904","MEAN_MOTION":15.30344819,"ECCENTRICITY":0.00011837,"INCLINATION":53.1585,"RA_OF_ASC_NODE":236.5419,"ARG_OF_PERICENTER":88.2555,"MEAN_ANOMALY":271.8582,"EPHEMERIS_TYPE":0,"CLASSIFICATION_TYPE":"U","NORAD_CAT_ID":59264,"ELEMENT_SET_NO":999,"REV_AT_EPOCH":9685,"BSTAR":0.0020416786,"MEAN_MOTION_DOT":0.00060879,"MEAN_MOTION_DDOT":0},{"OBJECT_NAME":"STARLINK-31646","OBJECT_ID":"2024-050M","EPOCH":"2025-12-10T03:04:38.116416","MEAN_MOTION":15.30193252,"ECCENTRICITY":0.00017068,"INCLINATION":53.1591,"RA_OF_ASC_NODE":237.1871,"ARG_OF_PERICENTER":281.8999,"MEAN_ANOMALY":78.181,"EPHEMERIS_TYPE":0,"CLASSIFICATION_TYPE":"U","NORAD_CAT_ID":59265,"ELEMENT_SET_NO":999,"REV_AT_EPOCH":9683,"BSTAR":0.00017895869,"MEAN_MOTION_DOT":4.943e-5,"MEAN_MOTION_DDOT":0},{"OBJECT_NAME":"STARLINK-31648","OBJECT_ID":"2024-050N","EPOCH":"2025-12-09T10:50:40.151904","MEAN_MOTION":15.30210728,"ECCENTRICITY":0.00011883,"INCLINATION":53.1614,"RA_OF_ASC_NODE":240.0766,"ARG_OF_PERICENTER":79.6927,"MEAN_ANOMALY":280.4208,"EPHEMERIS_TYPE":0,"CLASSIFICATION_TYPE":"U","NORAD_CAT_ID":59266,"ELEMENT_SET_NO":999,"REV_AT_EPOCH":9673,"BSTAR":-6.9690371e-5,"MEAN_MOTION_DOT":-2.423e-5,"MEAN_MOTION_DDOT":0}]
